NORAD_CAT_ID,OBJECT_NAME,OBJECT_TYPE,EPOCH,MEAN_MOTION,ECCENTRICITY,INCLINATION,RA_OF_ASC_NODE,ARG_OF_PERICENTER,MEAN_ANOMALY,BSTAR,MEAN_MOTION_DOT,MEAN_MOTION_DDOT,TLE_LINE0,TLE_LINE1,TLE_LINE2,SEMIMAJOR_AXIS,PERIOD,APOGEE,PERIGEE,DECAYED
56488.0,STARLINK-6204,PAYLOAD,2024-08-21 01:21:30,14.98364426,0.0003876,70.0002,90.7207,254.0208,106.0524,0.00055607,6.554e-05,0.0,0 STARLINK-6204,1 56488U 23064AS  24234.05660072  .00006554  00000-0  55607-3 0  9993,2 56488  70.0002  90.7207 0003876 254.0208 106.0524 14.98364426 71869,6950.086,96.105,574.645,569.258,0.0
56488.0,STARLINK-6204,PAYLOAD,2024-08-21 20:35:09,14.98324328,0.0003308,69.9998,88.7008,270.1711,89.9068,3.0324e-05,2.69e-06,0.0,0 STARLINK-6204,1 56488U 23064AS  24234.85774520  .00000269  00000-0  30324-4 0  9992,2 56488  69.9998  88.7008 0003308 270.1711  89.9068 14.98324328 71986,6950.21,96.107,574.375,569.776,0.0
